[{"OBJECT_NAME":"STARLINK-33744","OBJECT_ID":"2025-070M","EPOCH":"2025-12-07T05:34:35.992992","MEAN_MOTION":15.27622236,"ECCENTRICITY":0.00016544,"INCLINATION":43.0032,"RA_OF_ASC_NODE":62.1777,"ARG_OF_PERICENTER":251.6106,"MEAN_ANOMALY":108.4566,"EPHEMERIS_TYPE":0,"CLASSIFICATION_TYPE":"U","NORAD_CAT_ID":63471,"ELEMENT_SET_NO":999,"REV_AT_EPOCH":3883,"BSTAR":0.0015608364,"MEAN_MOTION_DOT":0.00042995,"MEAN_MOTION_DDOT":0},{"OBJECT_NAME":"STARLINK-33766","OBJECT_ID":"2025-070N","EPOCH":"2025-12-07T05:47:33.320832","MEAN_MOTION":15.27609116,"ECCENTRICITY":0.00034474,"INCLINATION":43.0024,"RA_OF_ASC_NODE":62.251,"ARG_OF_PERICENTER":286.9904,"MEAN_ANOMALY":73.0569,"EPHEMERIS_TYPE":0,"CLASSIFICATION_TYPE":"U","NORAD_CAT_ID":63472,"ELEMENT_SET_NO":999,"REV_AT_EPOCH":3883,"BSTAR":0.0011895404,"MEAN_MOTION_DOT":0.00032649,"MEAN_MOTION_DDOT":0},{"OBJECT_NAME":"STARLINK-33765","OBJECT_ID":"2025-070P","EPOCH":"2025-12-07T06:55:48.061344","MEAN_MOTION":15.27622821,"ECCENTRICITY":0.00042799,"INCLINATION":42.9943,"RA_OF_ASC_NODE":61.7253,"ARG_OF_PERICENTER":152.3302,"MEAN_ANOMALY":207.7777,"EPHEMERIS_TYPE":0,"CLASSIFICATION_TYPE":"U","NORAD_CAT_ID":63473,"ELEMENT_SET_NO":999,"REV_AT_EPOCH":3884,"BSTAR":0.0018433445,"MEAN_MOTION_DOT":0.0005089,"MEAN_MOTION_DDOT":0},{"OBJECT_NAME":"STARLINK-33735","OBJECT_ID":"2025-070Q","EPOCH":"2025-12-07T06:29:55.218336","MEAN_MOTION":15.27543914,"ECCENTRICITY":0.00058538,"INCLINATION":43.0041,"RA_OF_ASC_NODE":61.6041,"ARG_OF_PERICENTER":244.1293,"MEAN_ANOMALY":115.8955,"EPHEMERIS_TYPE":0,"CLASSIFICATION_TYPE":"U","NORAD_CAT_ID":63474,"ELEMENT_SET_NO":999,"REV_AT_EPOCH":3884,"BSTAR":0.0030750468,"MEAN_MOTION_DOT":0.00085277,"MEAN_MOTION_DDOT":0},{"OBJECT_NAME":"STARLINK-33731","OBJECT_ID":"2025-070R","EPOCH":"2025-12-07T05:53:06.649440","MEAN_MOTION":15.27618474,"ECCENTRICITY":0.00022686,"INCLINATION":42.9997,"RA_OF_ASC_NODE":62.2754,"ARG_OF_PERICENTER":284.7539,"MEAN_ANOMALY":75.3062,"EPHEMERIS_TYPE":0,"CLASSIFICATION_TYPE":"U","NORAD_CAT_ID":63475,"ELEMENT_SET_NO":999,"REV_AT_EPOCH":3883,"BSTAR":0.0020742952,"MEAN_MOTION_DOT":0.00057332,"MEAN_MOTION_DDOT":0},{"OBJECT_NAME":"STARLINK-33718","OBJECT_ID":"2025-070S","EPOCH":"2025-12-07T06:11:24.274176","MEAN_MOTION":15.27598809,"ECCENTRICITY":3.499e-5,"INCLINATION":43.0014,"RA_OF_ASC_NODE":61.5077,"ARG_OF_PERICENTER":263.1811,"MEAN_ANOMALY":96.9001,"EPHEMERIS_TYPE":0,"CLASSIFICATION_TYPE":"U","NORAD_CAT_ID":63476,"ELEMENT_SET_NO":999,"REV_AT_EPOCH":3884,"BSTAR":0.00079632389,"MEAN_MOTION_DOT":0.00021728,"MEAN_MOTION_DDOT":0},{"OBJECT_NAME":"STARLINK-33630","OBJECT_ID":"2025-070T","EPOCH":"2025-12-07T06:32:26.649024","MEAN_MOTION":15.27590933,"ECCENTRICITY":0.00010954,"INCLINATION":43.0009,"RA_OF_ASC_NODE":58.1362,"ARG_OF_PERICENTER":241.774,"MEAN_ANOMALY":118.3001,"EPHEMERIS_TYPE":0,"CLASSIFICATION_TYPE":"U","NORAD_CAT_ID":63477,"ELEMENT_SET_NO":999,"REV_AT_EPOCH":3888,"BSTAR":0.0014063369,"MEAN_MOTION_DOT":0.00038653,"MEAN_MOTION_DDOT":0},{"OBJECT_NAME":"STARLINK-33695","OBJECT_ID":"2025-070U","EPOCH":"2025-12-07T06:13:56.623296","MEAN_MOTION":15.2757305,"ECCENTRICITY":0.00015067,"INCLINATION":43.0026,"RA_OF_ASC_NODE":58.0407,"ARG_OF_PERICENTER":287.2373,"MEAN_ANOMALY":72.8314,"EPHEMERIS_TYPE":0,"CLASSIFICATION_TYPE":"U","NORAD_CAT_ID":63478,"ELEMENT_SET_NO":999,"REV_AT_EPOCH":3888,"BSTAR":0.0019054358,"MEAN_MOTION_DOT":0.00052535,"MEAN_MOTION_DDOT":0},{"OBJECT_NAME":"STARLINK-33713","OBJECT_ID":"2025-070V","EPOCH":"2025-12-07T06:19:29.765280","MEAN_MOTION":15.27603573,"ECCENTRICITY":0.00011149,"INCLINATION":43.002,"RA_OF_ASC_NODE":58.0681,"ARG_OF_PERICENTER":34.3626,"MEAN_ANOMALY":325.7297,"EPHEMERIS_TYPE":0,"CLASSIFICATION_TYPE":"U","NORAD_CAT_ID":63479,"ELEMENT_SET_NO":999,"REV_AT_EPOCH":3888,"BSTAR":0.0013336792,"MEAN_MOTION_DOT":0.00036647,"MEAN_MOTION_DDOT":0},{"OBJECT_NAME":"STARLINK-33721","OBJECT_ID":"2025-070W","EPOCH":"2025-12-07T06:23:11.470272","MEAN_MOTION":15.27575429,"ECCENTRICITY":0.00011511,"INCLINATION":43.0033,"RA_OF_ASC_NODE":58.0854,"ARG_OF_PERICENTER":282.529,"MEAN_ANOMALY":77.5433,"EPHEMERIS_TYPE":0,"CLASSIFICATION_TYPE":"U","NORAD_CAT_ID":63480,"ELEMENT_SET_NO":999,"REV_AT_EPOCH":3888,"BSTAR":0.00066023213,"MEAN_MOTION_DOT":0.00017948,"MEAN_MOTION_DDOT":0},{"OBJECT_NAME":"STARLINK-33639","OBJECT_ID":"2025-070X","EPOCH":"2025-12-07T05:16:47.015040","MEAN_MOTION":15.27638761,"ECCENTRICITY":4.112e-5,"INCLINATION":43.0017,"RA_OF_ASC_NODE":58.5947,"ARG_OF_PERICENTER":128.5279,"MEAN_ANOMALY":231.561,"EPHEMERIS_TYPE":0,"CLASSIFICATION_TYPE":"U","NORAD_CAT_ID":63481,"ELEMENT_SET_NO":999,"REV_AT_EPOCH":3887,"BSTAR":0.0019908512,"MEAN_MOTION_DOT":0.0005503,"MEAN_MOTION_DDOT":0},{"OBJECT_NAME":"STARLINK-33688","OBJECT_ID":"2025-070Z","EPOCH":"2025-12-07T05:27:11.908224","MEAN_MOTION":15.27606535,"ECCENTRICITY":3.025e-5,"INCLINATION":43.0029,"RA_OF_ASC_NODE":62.1202,"ARG_OF_PERICENTER":222.6406,"MEAN_ANOMALY":137.4423,"EPHEMERIS_TYPE":0,"CLASSIFICATION_TYPE":"U","NORAD_CAT_ID":63483,"ELEMENT_SET_NO":999,"REV_AT_EPOCH":3883,"BSTAR":0.001100142,"MEAN_MOTION_DOT":0.0003016,"MEAN_MOTION_DDOT":0},{"OBJECT_NAME":"STARLINK-33700","OBJECT_ID":"2025-070AA","EPOCH":"2025-12-07T06:33:35.718048","MEAN_MOTION":15.27596833,"ECCENTRICITY":0.00014085,"INCLINATION":43.0023,"RA_OF_ASC_NODE":61.6075,"ARG_OF_PERICENTER":251.9683,"MEAN_ANOMALY":108.1016,"EPHEMERIS_TYPE":0,"CLASSIFICATION_TYPE":"U","NORAD_CAT_ID":63484,"ELEMENT_SET_NO":999,"REV_AT_EPOCH":3884,"BSTAR":0.00067284778,"MEAN_MOTION_DOT":0.00018309,"MEAN_MOTION_DDOT":0},{"OBJECT_NAME":"STARLINK-33687","OBJECT_ID":"2025-070AB","EPOCH":"2025-12-07T06:16:56.270496","MEAN_MOTION":15.27615023,"ECCENTRICITY":0.00023592,"INCLINATION":43.0002,"RA_OF_ASC_NODE":61.4784,"ARG_OF_PERICENTER":287.1812,"MEAN_ANOMALY":72.8782,"EPHEMERIS_TYPE":0,"CLASSIFICATION_TYPE":"U","NORAD_CAT_ID":63485,"ELEMENT_SET_NO":999,"REV_AT_EPOCH":3884,"BSTAR":0.0017147621,"MEAN_MOTION_DOT":0.0004728,"MEAN_MOTION_DDOT":0},{"OBJECT_NAME":"STARLINK-33716","OBJECT_ID":"2025-070AC","EPOCH":"2025-12-07T04:50:11.550912","MEAN_MOTION":15.27605856,"ECCENTRICITY":3.949e-5,"INCLINATION":42.9995,"RA_OF_ASC_NODE":61.9442,"ARG_OF_PERICENTER":238.9316,"MEAN_ANOMALY":121.1496,"EPHEMERIS_TYPE":0,"CLASSIFICATION_TYPE":"U","NORAD_CAT_ID":63486,"ELEMENT_SET_NO":999,"REV_AT_EPOCH":3883,"BSTAR":0.0012903227,"MEAN_MOTION_DOT":0.00035444,"MEAN_MOTION_DDOT":0},{"OBJECT_NAME":"STARLINK-33754","OBJECT_ID":"2025-070AD","EPOCH":"2025-12-07T06:53:56.963904","MEAN_MOTION":15.27602001,"ECCENTRICITY":0.00013584,"INCLINATION":43.0021,"RA_OF_ASC_NODE":61.7097,"ARG_OF_PERICENTER":235.4659,"MEAN_ANOMALY":124.6065,"EPHEMERIS_TYPE":0,"CLASSIFICATION_TYPE":"U","NORAD_CAT_ID":63487,"ELEMENT_SET_NO":999,"REV_AT_EPOCH":3884,"BSTAR":0.0012841807,"MEAN_MOTION_DOT":0.00035269,"MEAN_MOTION_DDOT":0}]
