STARLINK-33744          
1 63471U 25070M   25341.23236103  .00042995  00000+0  15608-2 0  9990
2 63471  43.0032  62.1777 0001654 251.6106 108.4566 15.27622236 38830
STARLINK-33766          
1 63472U 25070N   25341.24135788  .00032649  00000+0  11895-2 0  9998
2 63472  43.0024  62.2510 0003447 286.9904  73.0569 15.27609116 38839
STARLINK-33765          
1 63473U 25070P   25341.28875071  .00050890  00000+0  18433-2 0  9992
2 63473  42.9943  61.7253 0004279 152.3302 207.7777 15.27622821 38844
STARLINK-33735          
1 63474U 25070Q   25341.27077799  .00085277  00000+0  30750-2 0  9996
2 63474  43.0041  61.6041 0005853 244.1293 115.8955 15.27543914 38840
STARLINK-33731          
1 63475U 25070R   25341.24521585  .00057332  00000+0  20743-2 0  9993
2 63475  42.9997  62.2754 0002268 284.7539  75.3062 15.27618474 38839
STARLINK-33718          
1 63476U 25070S   25341.25791984  .00021728  00000+0  79632-3 0  9999
2 63476  43.0014  61.5077 0000349 263.1811  96.9001 15.27598809 38846
STARLINK-33630          
1 63477U 25070T   25341.27253066  .00038653  00000+0  14063-2 0  9997
2 63477  43.0009  58.1362 0001095 241.7740 118.3001 15.27590933 38885
STARLINK-33695          
1 63478U 25070U   25341.25968314  .00052535  00000+0  19054-2 0  9995
2 63478  43.0026  58.0407 0001506 287.2373  72.8314 15.27573050 38880
STARLINK-33713          
1 63479U 25070V   25341.26353895  .00036647  00000+0  13337-2 0  9993
2 63479  43.0020  58.0681 0001114  34.3626 325.7297 15.27603573 38880
STARLINK-33721          
1 63480U 25070W   25341.26610498  .00017948  00000+0  66023-3 0  9994
2 63480  43.0033  58.0854 0001151 282.5290  77.5433 15.27575429 38885
STARLINK-33639          
1 63481U 25070X   25341.21998860  .00055030  00000+0  19909-2 0  9996
2 63481  43.0017  58.5947 0000411 128.5279 231.5610 15.27638761 38877
STARLINK-33688          
1 63483U 25070Z   25341.22722116  .00030160  00000+0  11001-2 0  9990
2 63483  43.0029  62.1202 0000302 222.6406 137.4423 15.27606535 38830
STARLINK-33700          
1 63484U 25070AA  25341.27333007  .00018309  00000+0  67285-3 0  9990
2 63484  43.0023  61.6075 0001408 251.9683 108.1016 15.27596833 38840
STARLINK-33687          
1 63485U 25070AB  25341.26176239  .00047280  00000+0  17148-2 0  9994
2 63485  43.0002  61.4784 0002359 287.1812  72.8782 15.27615023 38844
STARLINK-33716          
1 63486U 25070AC  25341.20152258  .00035444  00000+0  12903-2 0  9997
2 63486  42.9995  61.9442 0000394 238.9316 121.1496 15.27605856 38832
STARLINK-33754          
1 63487U 25070AD  25341.28746486  .00035269  00000+0  12842-2 0  9995
2 63487  43.0021  61.7097 0001358 235.4659 124.6065 15.27602001 38842
